{
  "type": "FeatureCollection",
  "features": [
    {
      "type": "Feature",
      "properties": {
        "osm_way_id": 597161191,
        "highway": "residential",
        "access": "private",
        "link_to_network": "shared_node"
      },
      "geometry": {
        "type": "LineString",
        "coordinates": [
          [
            100.763163,
            13.610444
          ],
          [
            100.763176,
            13.610439
          ],
          [
            100.763221,
            13.610415
          ],
          [
            100.763255,
            13.610386
          ]
        ]
      }
    },
    {
      "type": "Feature",
      "properties": {
        "osm_way_id": 597161192,
        "highway": "residential",
        "access": "private",
        "link_to_network": "shared_node"
      },
      "geometry": {
        "type": "LineString",
        "coordinates": [
          [
            100.762919,
            13.610162
          ],
          [
            100.76297,
            13.61033
          ],
          [
            100.763009,
            13.61039
          ],
          [
            100.763051,
            13.610417
          ],
          [
            100.763083,
            13.610435
          ],
          [
            100.763163,
            13.610444
          ],
          [
            100.763199,
            13.610605
          ],
          [
            100.763277,
            13.611159
          ],
          [
            100.763341,
            13.611472
          ],
          [
            100.763496,
            13.612049
          ],
          [
            100.763592,
            13.61241
          ],
          [
            100.763866,
            13.612834
          ],
          [
            100.764272,
            13.613358
          ],
          [
            100.764374,
            13.61357
          ],
          [
            100.764422,
            13.613787
          ],
          [
            100.764504,
            13.614524
          ],
          [
            100.76453,
            13.614754
          ],
          [
            100.764617,
            13.615508
          ],
          [
            100.764778,
            13.616176
          ],
          [
            100.764883,
            13.616595
          ]
        ]
      }
    },
    {
      "type": "Feature",
      "properties": {
        "osm_way_id": 597161193,
        "highway": "residential",
        "access": "private",
        "link_to_network": "shared_node"
      },
      "geometry": {
        "type": "LineString",
        "coordinates": [
          [
            100.764978,
            13.616601
          ],
          [
            100.764764,
            13.61566
          ],
          [
            100.764622,
            13.614741
          ],
          [
            100.764603,
            13.614532
          ],
          [
            100.764552,
            13.613907
          ],
          [
            100.764488,
            13.613604
          ],
          [
            100.764436,
            13.613446
          ],
          [
            100.764354,
            13.613308
          ],
          [
            100.764017,
            13.612874
          ],
          [
            100.763848,
            13.612649
          ],
          [
            100.763705,
            13.61241
          ],
          [
            100.763611,
            13.612021
          ],
          [
            100.763429,
            13.611258
          ],
          [
            100.763394,
            13.611085
          ],
          [
            100.763255,
            13.610386
          ],
          [
            100.763312,
            13.610271
          ],
          [
            100.763337,
            13.610154
          ],
          [
            100.763351,
            13.610018
          ]
        ]
      }
    },
    {
      "type": "Feature",
      "properties": {
        "osm_way_id": 597242044,
        "highway": "residential",
        "access": "private",
        "link_to_network": "shared_node"
      },
      "geometry": {
        "type": "LineString",
        "coordinates": [
          [
            100.768222,
            13.618905
          ],
          [
            100.768287,
            13.618884
          ]
        ]
      }
    },
    {
      "type": "Feature",
      "properties": {
        "osm_way_id": 597242045,
        "highway": "residential",
        "access": "private",
        "link_to_network": "shared_node"
      },
      "geometry": {
        "type": "LineString",
        "coordinates": [
          [
            100.768109,
            13.618937
          ],
          [
            100.76816,
            13.618923
          ],
          [
            100.768222,
            13.618905
          ]
        ]
      }
    },
    {
      "type": "Feature",
      "properties": {
        "osm_way_id": 597242046,
        "highway": "residential",
        "access": "private",
        "link_to_network": "shared_node"
      },
      "geometry": {
        "type": "LineString",
        "coordinates": [
          [
            100.768187,
            13.61881
          ],
          [
            100.768075,
            13.618853
          ]
        ]
      }
    },
    {
      "type": "Feature",
      "properties": {
        "osm_way_id": 597242047,
        "highway": "residential",
        "access": "private",
        "link_to_network": "shared_node"
      },
      "geometry": {
        "type": "LineString",
        "coordinates": [
          [
            100.768251,
            13.618785
          ],
          [
            100.768187,
            13.61881
          ]
        ]
      }
    },
    {
      "type": "Feature",
      "properties": {
        "osm_way_id": 597242050,
        "highway": "residential",
        "access": "private",
        "link_to_network": "shared_node"
      },
      "geometry": {
        "type": "LineString",
        "coordinates": [
          [
            100.764883,
            13.616595
          ],
          [
            100.764912,
            13.616715
          ]
        ]
      }
    },
    {
      "type": "Feature",
      "properties": {
        "osm_way_id": 597242051,
        "highway": "residential",
        "access": "private",
        "link_to_network": "shared_node"
      },
      "geometry": {
        "type": "LineString",
        "coordinates": [
          [
            100.764912,
            13.616715
          ],
          [
            100.765329,
            13.618347
          ],
          [
            100.765488,
            13.618855
          ],
          [
            100.765569,
            13.618991
          ],
          [
            100.765702,
            13.619159
          ],
          [
            100.765868,
            13.619271
          ],
          [
            100.766061,
            13.619363
          ],
          [
            100.766223,
            13.619404
          ],
          [
            100.766384,
            13.619408
          ],
          [
            100.766584,
            13.619387
          ],
          [
            100.766843,
            13.619324
          ],
          [
            100.768109,
            13.618937
          ]
        ]
      }
    },
    {
      "type": "Feature",
      "properties": {
        "osm_way_id": 597242052,
        "highway": "residential",
        "access": "private",
        "link_to_network": "shared_node"
      },
      "geometry": {
        "type": "LineString",
        "coordinates": [
          [
            100.765004,
            13.616714
          ],
          [
            100.764978,
            13.616601
          ]
        ]
      }
    },
    {
      "type": "Feature",
      "properties": {
        "osm_way_id": 597242053,
        "highway": "residential",
        "access": "private",
        "link_to_network": "shared_node"
      },
      "geometry": {
        "type": "LineString",
        "coordinates": [
          [
            100.768075,
            13.618853
          ],
          [
            100.767304,
            13.619103
          ],
          [
            100.766655,
            13.619295
          ],
          [
            100.766504,
            13.619329
          ],
          [
            100.766369,
            13.619343
          ],
          [
            100.766193,
            13.619321
          ],
          [
            100.766029,
            13.619264
          ],
          [
            100.765878,
            13.619182
          ],
          [
            100.765735,
            13.619078
          ],
          [
            100.765661,
            13.618985
          ],
          [
            100.765584,
            13.618865
          ],
          [
            100.765498,
            13.618625
          ],
          [
            100.765354,
            13.618062
          ],
          [
            100.765004,
            13.616714
          ]
        ]
      }
    },
    {
      "type": "Feature",
      "properties": {
        "osm_way_id": 597242054,
        "highway": "residential",
        "access": "private",
        "link_to_network": "shared_node"
      },
      "geometry": {
        "type": "LineString",
        "coordinates": [
          [
            100.767675,
            13.618909
          ],
          [
            100.767627,
            13.618913
          ],
          [
            100.767588,
            13.618917
          ],
          [
            100.76753,
            13.618925
          ],
          [
            100.76728,
            13.619011
          ],
          [
            100.767029,
            13.619095
          ],
          [
            100.766732,
            13.619196
          ],
          [
            100.766682,
            13.619204
          ],
          [
            100.766653,
            13.619202
          ],
          [
            100.766632,
            13.61919
          ],
          [
            100.766614,
            13.619165
          ],
          [
            100.766396,
            13.618289
          ],
          [
            100.766095,
            13.617135
          ],
          [
            100.766072,
            13.617014
          ]
        ]
      }
    },
    {
      "type": "Feature",
      "properties": {
        "osm_way_id": 597242055,
        "highway": "residential",
        "access": "private",
        "link_to_network": "shared_node"
      },
      "geometry": {
        "type": "LineString",
        "coordinates": [
          [
            100.767304,
            13.619103
          ],
          [
            100.76728,
            13.619011
          ]
        ]
      }
    },
    {
      "type": "Feature",
      "properties": {
        "osm_way_id": 597242094,
        "highway": "residential",
        "access": "private",
        "link_to_network": "shared_node"
      },
      "geometry": {
        "type": "LineString",
        "coordinates": [
          [
            100.768407,
            13.619017
          ],
          [
            100.768399,
            13.61893
          ],
          [
            100.768388,
            13.61885
          ]
        ]
      }
    },
    {
      "type": "Feature",
      "properties": {
        "osm_way_id": 597242095,
        "highway": "residential",
        "access": "private",
        "link_to_network": "shared_node"
      },
      "geometry": {
        "type": "LineString",
        "coordinates": [
          [
            100.768305,
            13.618887
          ],
          [
            100.76835,
            13.618942
          ],
          [
            100.768407,
            13.619017
          ]
        ]
      }
    },
    {
      "type": "Feature",
      "properties": {
        "osm_way_id": 597242097,
        "highway": "residential",
        "access": "private",
        "link_to_network": "shared_node"
      },
      "geometry": {
        "type": "LineString",
        "coordinates": [
          [
            100.763394,
            13.611085
          ],
          [
            100.763412,
            13.611037
          ],
          [
            100.763434,
            13.610954
          ],
          [
            100.763419,
            13.610525
          ],
          [
            100.763414,
            13.610475
          ],
          [
            100.763395,
            13.610409
          ],
          [
            100.763312,
            13.610271
          ]
        ]
      }
    },
    {
      "type": "Feature",
      "properties": {
        "osm_way_id": 597242099,
        "highway": "residential",
        "access": "private",
        "link_to_network": "shared_node"
      },
      "geometry": {
        "type": "LineString",
        "coordinates": [
          [
            100.763051,
            13.610417
          ],
          [
            100.763054,
            13.610486
          ],
          [
            100.763055,
            13.610557
          ],
          [
            100.76307,
            13.610681
          ],
          [
            100.763105,
            13.610823
          ],
          [
            100.763195,
            13.611058
          ],
          [
            100.763235,
            13.611114
          ],
          [
            100.763277,
            13.611159
          ]
        ]
      }
    },
    {
      "type": "Feature",
      "properties": {
        "osm_way_id": 597242100,
        "highway": "residential",
        "access": "private",
        "link_to_network": "shared_node"
      },
      "geometry": {
        "type": "LineString",
        "coordinates": [
          [
            100.768287,
            13.618884
          ],
          [
            100.768305,
            13.618887
          ],
          [
            100.768345,
            13.618887
          ],
          [
            100.768371,
            13.618873
          ],
          [
            100.768388,
            13.61885
          ],
          [
            100.768396,
            13.618822
          ],
          [
            100.768392,
            13.618793
          ],
          [
            100.768377,
            13.618768
          ],
          [
            100.768353,
            13.618751
          ],
          [
            100.768324,
            13.618744
          ],
          [
            100.768295,
            13.618747
          ],
          [
            100.768269,
            13.618762
          ],
          [
            100.768251,
            13.618785
          ],
          [
            100.768244,
            13.618813
          ],
          [
            100.768248,
            13.618842
          ],
          [
            100.768263,
            13.618867
          ],
          [
            100.768287,
            13.618884
          ]
        ]
      }
    },
    {
      "type": "Feature",
      "properties": {
        "osm_way_id": 694361340,
        "highway": "residential",
        "access": "private",
        "link_to_network": "shared_node"
      },
      "geometry": {
        "type": "LineString",
        "coordinates": [
          [
            100.768407,
            13.619017
          ],
          [
            100.768438,
            13.619128
          ],
          [
            100.768519,
            13.619318
          ],
          [
            100.768659,
            13.619552
          ],
          [
            100.768799,
            13.619738
          ],
          [
            100.769463,
            13.620284
          ],
          [
            100.770111,
            13.620816
          ],
          [
            100.770671,
            13.621231
          ],
          [
            100.77075,
            13.621317
          ]
        ]
      }
    },
    {
      "type": "Feature",
      "properties": {
        "osm_way_id": 597241724,
        "highway": "residential",
        "access": "private",
        "link_to_network": "shared_node"
      },
      "geometry": {
        "type": "LineString",
        "coordinates": [
          [
            100.775312,
            13.615695
          ],
          [
            100.776327,
            13.615593
          ]
        ]
      }
    },
    {
      "type": "Feature",
      "properties": {
        "osm_way_id": 597241727,
        "highway": "residential",
        "access": "private",
        "link_to_network": "shared_node"
      },
      "geometry": {
        "type": "LineString",
        "coordinates": [
          [
            100.775225,
            13.614546
          ],
          [
            100.775312,
            13.615695
          ],
          [
            100.775389,
            13.617024
          ],
          [
            100.7764,
            13.616954
          ],
          [
            100.776477,
            13.616904
          ],
          [
            100.776555,
            13.616816
          ],
          [
            100.776636,
            13.616208
          ],
          [
            100.776743,
            13.616203
          ]
        ]
      }
    },
    {
      "type": "Feature",
      "properties": {
        "osm_way_id": 597241739,
        "highway": "residential",
        "access": "private",
        "link_to_network": "shared_node"
      },
      "geometry": {
        "type": "LineString",
        "coordinates": [
          [
            100.774373,
            13.614609
          ],
          [
            100.774383,
            13.614864
          ],
          [
            100.774375,
            13.614978
          ],
          [
            100.774342,
            13.615111
          ],
          [
            100.77429,
            13.615246
          ],
          [
            100.774216,
            13.615372
          ],
          [
            100.774143,
            13.615482
          ],
          [
            100.773731,
            13.615827
          ],
          [
            100.773585,
            13.615951
          ],
          [
            100.773501,
            13.616019
          ],
          [
            100.773333,
            13.616245
          ],
          [
            100.773243,
            13.616413
          ],
          [
            100.773182,
            13.616578
          ],
          [
            100.773147,
            13.616749
          ],
          [
            100.773144,
            13.616856
          ],
          [
            100.773142,
            13.617087
          ],
          [
            100.773189,
            13.617293
          ],
          [
            100.773286,
            13.617597
          ],
          [
            100.773482,
            13.618206
          ],
          [
            100.773574,
            13.618495
          ],
          [
            100.773584,
            13.618539
          ],
          [
            100.773679,
            13.618981
          ],
          [
            100.773803,
            13.61976
          ],
          [
            100.773848,
            13.620036
          ],
          [
            100.773967,
            13.620636
          ],
          [
            100.774017,
            13.620799
          ],
          [
            100.774216,
            13.621286
          ],
          [
            100.774396,
            13.62172
          ],
          [
            100.774404,
            13.621831
          ],
          [
            100.774385,
            13.621977
          ],
          [
            100.774231,
            13.622707
          ]
        ]
      }
    },
    {
      "type": "Feature",
      "properties": {
        "osm_way_id": 597241744,
        "highway": "residential",
        "access": "private",
        "link_to_network": "shared_node"
      },
      "geometry": {
        "type": "LineString",
        "coordinates": [
          [
            100.773715,
            13.614416
          ],
          [
            100.773759,
            13.614305
          ]
        ]
      }
    },
    {
      "type": "Feature",
      "properties": {
        "osm_way_id": 597241749,
        "highway": "residential",
        "access": "private",
        "link_to_network": "shared_node"
      },
      "geometry": {
        "type": "LineString",
        "coordinates": [
          [
            100.773641,
            13.614662
          ],
          [
            100.773715,
            13.614416
          ]
        ]
      }
    },
    {
      "type": "Feature",
      "properties": {
        "osm_way_id": 597241753,
        "highway": "residential",
        "access": "private",
        "link_to_network": "shared_node"
      },
      "geometry": {
        "type": "LineString",
        "coordinates": [
          [
            100.773759,
            13.614305
          ],
          [
            100.773848,
            13.614193
          ],
          [
            100.773944,
            13.61411
          ],
          [
            100.774054,
            13.614063
          ],
          [
            100.774422,
            13.614
          ],
          [
            100.775658,
            13.613798
          ],
          [
            100.775991,
            13.613744
          ],
          [
            100.776155,
            13.613714
          ],
          [
            100.776174,
            13.613711
          ],
          [
            100.776244,
            13.613724
          ],
          [
            100.776292,
            13.613771
          ],
          [
            100.776316,
            13.613883
          ]
        ]
      }
    },
    {
      "type": "Feature",
      "properties": {
        "osm_way_id": 597241757,
        "highway": "residential",
        "access": "private",
        "link_to_network": "shared_node"
      },
      "geometry": {
        "type": "LineString",
        "coordinates": [
          [
            100.778477,
            13.613729
          ],
          [
            100.778476,
            13.614527
          ]
        ]
      }
    },
    {
      "type": "Feature",
      "properties": {
        "osm_way_id": 597241775,
        "highway": "residential",
        "access": "private",
        "link_to_network": "shared_node"
      },
      "geometry": {
        "type": "LineString",
        "coordinates": [
          [
            100.780062,
            13.613729
          ],
          [
            100.779967,
            13.615479
          ],
          [
            100.77992,
            13.615872
          ],
          [
            100.779887,
            13.615963
          ],
          [
            100.779827,
            13.616047
          ],
          [
            100.779731,
            13.616154
          ],
          [
            100.779636,
            13.616215
          ],
          [
            100.779334,
            13.616397
          ],
          [
            100.778997,
            13.616679
          ],
          [
            100.77885,
            13.616845
          ],
          [
            100.778808,
            13.616893
          ],
          [
            100.778731,
            13.617002
          ],
          [
            100.778676,
            13.617082
          ],
          [
            100.778576,
            13.617268
          ],
          [
            100.778509,
            13.617432
          ],
          [
            100.778499,
            13.617467
          ],
          [
            100.778482,
            13.61753
          ],
          [
            100.778465,
            13.617699
          ],
          [
            100.778473,
            13.617781
          ],
          [
            100.778478,
            13.617836
          ],
          [
            100.778513,
            13.618053
          ],
          [
            100.778625,
            13.618351
          ],
          [
            100.778643,
            13.618476
          ],
          [
            100.778642,
            13.618618
          ],
          [
            100.778564,
            13.618909
          ],
          [
            100.778547,
            13.618972
          ]
        ]
      }
    },
    {
      "type": "Feature",
      "properties": {
        "osm_way_id": 597242091,
        "highway": "residential",
        "access": "private",
        "link_to_network": "shared_node"
      },
      "geometry": {
        "type": "LineString",
        "coordinates": [
          [
            100.776824,
            13.61435
          ],
          [
            100.776597,
            13.614445
          ]
        ]
      }
    },
    {
      "type": "Feature",
      "properties": {
        "osm_way_id": 597242092,
        "highway": "residential",
        "access": "private",
        "link_to_network": "shared_node"
      },
      "geometry": {
        "type": "LineString",
        "coordinates": [
          [
            100.776597,
            13.614445
          ],
          [
            100.776461,
            13.614464
          ],
          [
            100.776359,
            13.614475
          ],
          [
            100.775638,
            13.61452
          ],
          [
            100.775225,
            13.614546
          ],
          [
            100.774373,
            13.614609
          ],
          [
            100.773641,
            13.614662
          ],
          [
            100.773219,
            13.614756
          ],
          [
            100.772148,
            13.615107
          ],
          [
            100.771855,
            13.615274
          ],
          [
            100.771702,
            13.61537
          ],
          [
            100.77108,
            13.615664
          ],
          [
            100.770679,
            13.615854
          ],
          [
            100.769618,
            13.616253
          ],
          [
            100.769026,
            13.616416
          ],
          [
            100.768511,
            13.616591
          ],
          [
            100.768361,
            13.616667
          ],
          [
            100.768208,
            13.616791
          ],
          [
            100.768143,
            13.616871
          ],
          [
            100.768065,
            13.616968
          ],
          [
            100.767949,
            13.617173
          ],
          [
            100.767915,
            13.617276
          ],
          [
            100.767889,
            13.617411
          ],
          [
            100.767899,
            13.617647
          ],
          [
            100.76795,
            13.617863
          ],
          [
            100.768295,
            13.618747
          ]
        ]
      }
    },
    {
      "type": "Feature",
      "properties": {
        "osm_way_id": 694361342,
        "highway": "residential",
        "access": "private",
        "link_to_network": "shared_node"
      },
      "geometry": {
        "type": "LineString",
        "coordinates": [
          [
            100.781748,
            13.613729
          ],
          [
            100.780666,
            13.613729
          ],
          [
            100.780062,
            13.613729
          ],
          [
            100.778477,
            13.613729
          ],
          [
            100.777776,
            13.613729
          ],
          [
            100.777622,
            13.613772
          ],
          [
            100.777488,
            13.613845
          ],
          [
            100.777068,
            13.614167
          ],
          [
            100.776909,
            13.614297
          ],
          [
            100.776824,
            13.61435
          ]
        ]
      }
    },
    {
      "type": "Feature",
      "properties": {
        "osm_way_id": 931312194,
        "highway": "residential",
        "access": "private",
        "link_to_network": "shared_node"
      },
      "geometry": {
        "type": "LineString",
        "coordinates": [
          [
            100.776931,
            13.616195
          ],
          [
            100.776968,
            13.616172
          ],
          [
            100.776992,
            13.616062
          ],
          [
            100.776979,
            13.615291
          ],
          [
            100.776909,
            13.614297
          ]
        ]
      }
    },
    {
      "type": "Feature",
      "properties": {
        "osm_way_id": 931312195,
        "highway": "residential",
        "access": "private",
        "link_to_network": "shared_node"
      },
      "geometry": {
        "type": "LineString",
        "coordinates": [
          [
            100.776743,
            13.616203
          ],
          [
            100.776931,
            13.616195
          ]
        ]
      }
    }
  ]
}
